[{"OBJECT_NAME":"STARLINK-34392","OBJECT_ID":"2025-130P","EPOCH":"2026-03-09T11:00:16.044192","MEAN_MOTION":15.30191197,"ECCENTRICITY":0.00013373,"INCLINATION":53.1595,"RA_OF_ASC_NODE":89.8922,"ARG_OF_PERICENTER":93.8643,"MEAN_ANOMALY":266.2511,"EPHEMERIS_TYPE":0,"CLASSIFICATION_TYPE":"U","NORAD_CAT_ID":64451,"ELEMENT_SET_NO":999,"REV_AT_EPOCH":4066,"BSTAR":0.0012063987,"MEAN_MOTION_DOT":0.00035532,"MEAN_MOTION_DDOT":0},{"OBJECT_NAME":"COSMOS 1782","OBJECT_ID":"1986-074A","EPOCH":"2026-03-09T22:40:22.374624","MEAN_MOTION":15.33314157,"ECCENTRICITY":0.00054418,"INCLINATION":82.5242,"RA_OF_ASC_NODE":238.1482,"ARG_OF_PERICENTER":197.7479,"MEAN_ANOMALY":162.3574,"EPHEMERIS_TYPE":0,"CLASSIFICATION_TYPE":"U","NORAD_CAT_ID":16986,"ELEMENT_SET_NO":999,"REV_AT_EPOCH":13134,"BSTAR":0.00042191031,"MEAN_MOTION_DOT":0.00013623,"MEAN_MOTION_DDOT":0}]
